H1 CPF 01  gfz 2022 02 02 01  5331 tandemx   
H2 1003001  6202 36605    2022 02 02 00 59 42 2022 02 07 00 00 42   120 1 1  0 0 0
H9
10 0 59612  86382.000000  0    -433906.576  -5819572.204   3652039.383
10 0 59613    102.000000  0    -579453.566  -5276056.943   4382065.371
10 0 59613    222.000000  0    -704535.187  -4637971.784   5034966.687
10 0 59613    342.000000  0    -805416.554  -3916887.752   5599284.090
10 0 59613    462.000000  0    -879002.974  -3125879.589   6065128.340
10 0 59613    582.000000  0    -922917.027  -2279278.689   6424348.179
10 0 59613    702.000000  0    -935558.062  -1392408.265   6670664.839
10 0 59613    822.000000  0    -916143.909   -481304.156   6799776.442
10 0 59613    942.000000  0    -864734.650    437576.447   6809429.136
10 0 59613   1062.000000  0    -782236.331   1347652.015   6699454.061
10 0 59613   1182.000000  0    -670384.559   2232515.382   6471770.122
10 0 59613   1302.000000  0    -531709.020   3076229.054   6130352.558
10 0 59613   1422.000000  0    -369479.692   3863613.083   5681168.085
10 0 59613   1542.000000  0    -187635.558   4580521.187   5132075.839
10 0 59613   1662.000000  0       9303.511   5214100.142   4492696.757
10 0 59613   1782.000000  0     216340.081   5753029.164   3774249.098
10 0 59613   1902.000000  0     428114.779   6187728.242   2989355.622
10 0 59613   2022.000000  0     639032.473   6510543.663   2151825.811
10 0 59613   2142.000000  0     843397.891   6715892.647   1276405.667
10 0 59613   2262.000000  0    1035553.898   6800365.603    378512.537
10 0 59613   2382.000000  0    1210021.494   6762785.805   -526044.146
10 0 59613   2502.000000  0    1361636.403   6604224.164  -1421349.820
10 0 59613   2622.000000  0    1485678.800   6327969.231  -2291672.413
10 0 59613   2742.000000  0    1577993.533   5939453.789  -3121745.494
10 0 59613   2862.000000  0    1635097.784   5446139.154  -3897040.818
10 0 59613   2982.000000  0    1654273.816   4857360.424  -4604024.054
10 0 59613   3102.000000  0    1633644.407   4184137.256  -5230387.963
10 0 59613   3222.000000  0    1572229.413   3438957.222  -5765259.356
10 0 59613   3342.000000  0    1469982.962   2635536.224  -6199379.069
10 0 59613   3462.000000  0    1327809.916   1788560.428  -6525250.629
10 0 59613   3582.000000  0    1147562.871    913417.634  -6737258.062
10 0 59613   3702.000000  0     932019.374     25920.257  -6831753.858
10 0 59613   3822.000000  0     684839.318   -857975.889  -6807114.519
10 0 59613   3942.000000  0     410503.430  -1722451.989  -6663763.879
10 0 59613   4062.000000  0     114234.620  -2552100.788  -6404166.057
10 0 59613   4182.000000  0    -198098.105  -3332195.430  -6032790.004
10 0 59613   4302.000000  0    -520091.984  -4048948.822  -5556040.136
10 0 59613   4422.000000  0    -844936.045  -4689756.994  -4982156.365
10 0 59613   4542.000000  0   -1165549.488  -5243425.205  -4321083.553
10 0 59613   4662.000000  0   -1474730.539  -5700371.472  -3584309.731
10 0 59613   4782.000000  0   -1765312.335  -6052802.568  -2784674.814
10 0 59613   4902.000000  0   -2030322.609  -6294858.614  -1936152.710
10 0 59613   5022.000000  0   -2263143.691  -6422722.948  -1053609.078
10 0 59613   5142.000000  0   -2457668.634  -6434693.032   -152538.351
10 0 59613   5262.000000  0   -2608449.631  -6331208.919    751214.421
10 0 59613   5382.000000  0   -2710834.425  -6114838.307   1641740.222
10 0 59613   5502.000000  0   -2761087.138  -5790218.544   2503355.321
10 0 59613   5622.000000  0   -2756490.153  -5363956.544   3320886.205
10 0 59613   5742.000000  0   -2695424.191  -4844489.793   4079943.588
10 0 59613   5862.000000  0   -2577425.160  -4241912.600   4767179.721
10 0 59613   5982.000000  0   -2403217.356  -3567772.219   5370524.712
10 0 59613   6102.000000  0   -2174721.035  -2834838.579   5879397.462
10 0 59613   6222.000000  0   -1895034.294  -2056855.287   6284886.463
10 0 59613   6342.000000  0   -1568390.659  -1248277.738   6579900.834
10 0 59613   6462.000000  0   -1200093.332   -424000.419   6759288.712
10 0 59613   6582.000000  0    -796428.484    400918.931   6819919.710
10 0 59613   6702.000000  0    -364558.316   1211532.905   6760736.473
10 0 59613   6822.000000  0      87606.022   1993274.938   6582772.530
10 0 59613   6942.000000  0     551549.161   2732220.916   6289135.204
10 0 59613   7062.000000  0    1018310.944   3415337.046   5884954.490
10 0 59613   7182.000000  0    1478658.085   4030712.054   5377299.075
10 0 59613   7302.000000  0    1923265.652   4567769.376   4775058.896
10 0 59613   7422.000000  0    2342905.947   5017455.707   4088795.064
10 0 59613   7542.000000  0    2728639.722   5372399.718   3330558.526
10 0 59613   7662.000000  0    3072006.662   5627041.478   2513682.589
10 0 59613   7782.000000  0    3365211.421   5777728.939   1652545.568
10 0 59613   7902.000000  0    3601297.451   5822772.289    762311.842
10 0 59613   8022.000000  0    3774305.838   5762460.500   -141341.726
10 0 59613   8142.000000  0    3879416.239   5599037.010  -1042510.517
10 0 59613   8262.000000  0    3913064.534   5336636.047  -1925350.072
10 0 59613   8382.000000  0    3873035.509   4981181.765  -2774362.379
10 0 59613   8502.000000  0    3758527.047   4540251.921  -3574673.900
10 0 59613   8622.000000  0    3570184.711   4022910.215  -4312298.384
10 0 59613   8742.000000  0    3310107.585   3439513.726  -4974379.233
10 0 59613   8862.000000  0    2981825.199   2801499.277  -5549409.289
10 0 59613   8982.000000  0    2590246.041   2121153.560  -6027422.375
10 0 59613   9102.000000  0    2141579.969   1411373.485  -6400155.708
10 0 59613   9222.000000  0    1643236.357    685421.165  -6661180.416
10 0 59613   9342.000000  0    1103701.516    -43320.705  -6806001.541
10 0 59613   9462.000000  0     532394.590   -761591.154  -6832128.659
10 0 59613   9582.000000  0     -60494.963  -1456487.170  -6739112.449
10 0 59613   9702.000000  0    -664184.054  -2115688.594  -6528550.823
10 0 59613   9822.000000  0   -1267487.158  -2727671.581  -6204065.996
10 0 59613   9942.000000  0   -1859018.847  -3281907.904  -5771248.460
10 0 59613  10062.000000  0   -2427403.743  -3769045.275  -5237570.430
10 0 59613  10182.000000  0   -2961492.962  -4181068.510  -4612269.416
10 0 59613  10302.000000  0   -3450583.242  -4511437.473  -3906199.090
10 0 59613  10422.000000  0   -3884632.598  -4755197.586  -3131650.045
10 0 59613  10542.000000  0   -4254469.290  -4909061.475  -2302142.951
10 0 59613  10662.000000  0   -4551989.050  -4971458.674  -1432195.804
10 0 59613  10782.000000  0   -4770335.192  -4942551.830   -537069.333
10 0 59613  10902.000000  0   -4904056.710  -4824218.432    367504.720
10 0 59613  11022.000000  0   -4949240.135  -4619997.928   1265607.444
10 0 59613  11142.000000  0   -4903610.650  -4335004.016   2141422.557
10 0 59613  11262.000000  0   -4766599.548  -3975804.656   2979524.057
10 0 59613  11382.000000  0   -4539377.068  -3550273.541   3765155.496
10 0 59613  11502.000000  0   -4224849.931  -3067417.090   4484495.763
10 0 59613  11622.000000  0   -3827622.626  -2537180.334   5124905.055
10 0 59613  11742.000000  0   -3353925.619  -1970238.734   5675145.133
10 0 59613  11862.000000  0   -2811513.022  -1377781.148   6125573.563
10 0 59613  11982.000000  0   -2209530.270   -771286.433   6468309.259
10 0 59613  12102.000000  0   -1558354.217   -162298.112   6697364.625
10 0 59613  12222.000000  0    -869410.238    437795.106   6808742.251
10 0 59613  12342.000000  0    -154971.493   1017970.547   6800499.995
10 0 59613  12462.000000  0     572059.268   1567773.448   6672783.020
10 0 59613  12582.000000  0    1298382.155   2077505.406   6427821.509
10 0 59613  12702.000000  0    2010542.611   2538395.357   6069893.368
10 0 59613  12822.000000  0    2695179.887   2942751.096   5605254.756
10 0 59613  12942.000000  0    3339279.415   3284090.496   5042037.732
10 0 59613  13062.000000  0    3930423.646   3557248.909   4390112.727
10 0 59613  13182.000000  0    4457033.858   3758459.642   3660921.022
10 0 59613  13302.000000  0    4908605.204   3885409.140   2867278.911
10 0 59613  13422.000000  0    5275922.390   3937261.131   2023149.903
10 0 59613  13542.000000  0    5551252.891   3914650.251   1143396.743
10 0 59613  13662.000000  0    5728513.146   3819645.938    243513.410
10 0 59613  13782.000000  0    5803402.484   3655686.118   -660656.387
10 0 59613  13902.000000  0    5773500.930   3427482.804  -1553206.953
10 0 59613  14022.000000  0    5638329.138   3140901.974  -2418458.616
10 0 59613  14142.000000  0    5399368.690   2802821.572  -3241239.164
10 0 59613  14262.000000  0    5060044.262   2420971.494  -4007153.227
10 0 59613  14382.000000  0    4625667.643   2003759.162  -4702835.743
10 0 59613  14502.000000  0    4103343.334   1560084.496  -5316181.365
10 0 59613  14622.000000  0    3501842.934   1099151.248  -5836547.050
10 0 59613  14742.000000  0    2831449.752    630278.071  -6254927.431
10 0 59613  14862.000000  0    2103776.624    162712.702  -6564099.271
10 0 59613  14982.000000  0    1331562.904   -294546.298  -6758734.509
10 0 59613  15102.000000  0     528453.026   -732918.745  -6835484.026
10 0 59613  15222.000000  0    -291242.278  -1144399.814  -6793028.155
10 0 59613  15342.000000  0   -1112794.494  -1521701.757  -6632095.879
10 0 59613  15462.000000  0   -1921315.672  -1858379.881  -6355454.653
10 0 59613  15582.000000  0   -2702022.560  -2148941.117  -5967867.459
10 0 59613  15702.000000  0   -3440501.196  -2388932.829  -5476019.305
10 0 59613  15822.000000  0   -4122971.597  -2575012.443  -4888414.316
10 0 59613  15942.000000  0   -4736547.667  -2704995.302  -4215239.855
10 0 59613  16062.000000  0   -5269485.267  -2777879.335  -3468200.104
10 0 59613  16182.000000  0   -5711414.995  -2793846.147  -2660320.850
10 0 59613  16302.000000  0   -6053553.605  -2754237.587  -1805726.913
10 0 59613  16422.000000  0   -6288888.153  -2661508.397   -919396.316
99
